{"type": "FeatureCollection", "features": [ {"type": "Feature", "properties": {"norad_id": 40664, "name": "SKY MEXICO-1", "group": "intelsat", "lat": -0.005072420030277943, "lon": 8.647937281828957, "alt_km": 35784.22867473148, "timestamp": "2025-12-26T23:26:41.821123+00:00", "meta": {"OBJECT_NAME": "SKY MEXICO-1", "OBJECT_ID": "2015-026B", "EPOCH": "2025-12-26T18:38:25.215072", "MEAN_MOTION": 1.00272126, "ECCENTRICITY": 0.0002524, "INCLINATION": 0.0146, "RA_OF_ASC_NODE": 22.4823, "ARG_OF_PERICENTER": 265.8315, "MEAN_ANOMALY": 8.0461, "EPHEMERIS_TYPE": 0, "CLASSIFICATION_TYPE": "U", "NORAD_CAT_ID": 40664, "ELEMENT_SET_NO": 999, "REV_AT_EPOCH": 3872, "BSTAR": 0, "MEAN_MOTION_DOT": -2.12e-06, "MEAN_MOTION_DDOT": 0}, "tle": {"line1": "1 40664U 15026B   25360.77668073 -.00000212  00000+0  00000+0 0  9998", "line2": "2 40664   0.0146  22.4823 0002524 265.8315   8.0461  1.00272126 38727"}}, "geometry": {"type": "Point", "coordinates": [8.647937281828957, -0.005072420030277943]}}, {"type": "Feature", "properties": {"norad_id": 40874, "name": "INTELSAT 34 (IS-34)", "group": "intelsat", "lat": 0.020043720337801905, "lon": 31.86304639405533, "alt_km": 35788.38457165511, "timestamp": "2025-12-26T23:26:41.821133+00:00", "meta": {"OBJECT_NAME": "INTELSAT 34 (IS-34)", "OBJECT_ID": "2015-039A", "EPOCH": "2025-12-26T01:50:17.564352", "MEAN_MOTION": 1.00269247, "ECCENTRICITY": 5.15e-05, "INCLINATION": 0.0147, "RA_OF_ASC_NODE": 340.5004, "ARG_OF_PERICENTER": 185.0401, "MEAN_ANOMALY": 261.3543, "EPHEMERIS_TYPE": 0, "CLASSIFICATION_TYPE": "U", "NORAD_CAT_ID": 40874, "ELEMENT_SET_NO": 999, "REV_AT_EPOCH": 3788, "BSTAR": 0, "MEAN_MOTION_DOT": -2.64e-06, "MEAN_MOTION_DDOT": 0}, "tle": {"line1": "1 40874U 15039A   25360.07659218 -.00000264  00000+0  00000+0 0  9996", "line2": "2 40874   0.0147 340.5004 0000515 185.0401 261.3543  1.00269247 37884"}}, "geometry": {"type": "Point", "coordinates": [31.86304639405533, 0.020043720337801905]}}, {"type": "Feature", "properties": {"norad_id": 41581, "name": "INTELSAT 31 (IS-31)", "group": "intelsat", "lat": 0.006987813704171422, "lon": -7.691408506841667, "alt_km": 35793.55410060039, "timestamp": "2025-12-26T23:26:41.821144+00:00", "meta": {"OBJECT_NAME": "INTELSAT 31 (IS-31)", "OBJECT_ID": "2016-035A", "EPOCH": "2025-12-23T19:31:44.703840", "MEAN_MOTION": 1.00269658, "ECCENTRICITY": 0.0001926, "INCLINATION": 0.0283, "RA_OF_ASC_NODE": 262.055, "ARG_OF_PERICENTER": 303.365, "MEAN_ANOMALY": 85.0534, "EPHEMERIS_TYPE": 0, "CLASSIFICATION_TYPE": "U", "NORAD_CAT_ID": 41581, "ELEMENT_SET_NO": 999, "REV_AT_EPOCH": 3492, "BSTAR": 0, "MEAN_MOTION_DOT": -1.29e-06, "MEAN_MOTION_DDOT": 0}, "tle": {"line1": "1 41581U 16035A   25357.81371185 -.00000129  00000+0  00000+0 0  9991", "line2": "2 41581   0.0283 262.0550 0001926 303.3650  85.0534  1.00269658 34922"}}, "geometry": {"type": "Point", "coordinates": [-7.691408506841667, 0.006987813704171422]}}, {"type": "Feature", "properties": {"norad_id": 41747, "name": "INTELSAT 36 (IS-36)", "group": "intelsat", "lat": 0.01864406847922955, "lon": 155.86780428766437, "alt_km": 35791.14974068867, "timestamp": "2025-12-26T23:26:41.821155+00:00", "meta": {"OBJECT_NAME": "INTELSAT 36 (IS-36)", "OBJECT_ID": "2016-053A", "EPOCH": "2025-12-24T23:41:40.191072", "MEAN_MOTION": 1.00271078, "ECCENTRICITY": 0.00011962, "INCLINATION": 0.0114, "RA_OF_ASC_NODE": 13.9545, "ARG_OF_PERICENTER": 310.844, "MEAN_ANOMALY": 192.8649, "EPHEMERIS_TYPE": 0, "CLASSIFICATION_TYPE": "U", "NORAD_CAT_ID": 41747, "ELEMENT_SET_NO": 999, "REV_AT_EPOCH": 3420, "BSTAR": 0, "MEAN_MOTION_DOT": -3e-08, "MEAN_MOTION_DDOT": 0}, "tle": {"line1": "1 41747U 16053A   25358.98727073 -.00000003  00000+0  00000+0 0  9996", "line2": "2 41747   0.0114  13.9545 0001196 310.8440 192.8649  1.00271078 34209"}}, "geometry": {"type": "Point", "coordinates": [155.86780428766437, 0.01864406847922955]}}, {"type": "Feature", "properties": {"norad_id": 41945, "name": "INTELSAT 32E (IS-32E)", "group": "intelsat", "lat": -0.006514055554626316, "lon": 44.194964089136164, "alt_km": 35784.837907215486, "timestamp": "2025-12-26T23:26:41.821166+00:00", "meta": {"OBJECT_NAME": "INTELSAT 32E (IS-32E)", "OBJECT_ID": "2017-007B", "EPOCH": "2025-12-26T02:09:38.712096", "MEAN_MOTION": 1.00269449, "ECCENTRICITY": 5.3e-05, "INCLINATION": 0.0279, "RA_OF_ASC_NODE": 75.1981, "ARG_OF_PERICENTER": 302.3368, "MEAN_ANOMALY": 66.5353, "EPHEMERIS_TYPE": 0, "CLASSIFICATION_TYPE": "U", "NORAD_CAT_ID": 41945, "ELEMENT_SET_NO": 999, "REV_AT_EPOCH": 3248, "BSTAR": 0, "MEAN_MOTION_DOT": -2.47e-06, "MEAN_MOTION_DDOT": 0}, "tle": {"line1": "1 41945U 17007B   25360.09003139 -.00000247  00000+0  00000+0 0  9991", "line2": "2 41945   0.0279  75.1981 0000530 302.3368  66.5353  1.00269449 32487"}}, "geometry": {"type": "Point", "coordinates": [44.194964089136164, -0.006514055554626316]}}, {"type": "Feature", "properties": {"norad_id": 42818, "name": "INTELSAT 35E (IS-35E)", "group": "intelsat", "lat": 0.020700924211330077, "lon": 52.865044850603546, "alt_km": 35792.84705460398, "timestamp": "2025-12-26T23:26:41.821176+00:00", "meta": {"OBJECT_NAME": "INTELSAT 35E (IS-35E)", "OBJECT_ID": "2017-041A", "EPOCH": "2025-12-24T19:47:02.663232", "MEAN_MOTION": 1.00269135, "ECCENTRICITY": 0.0001994, "INCLINATION": 0.0182, "RA_OF_ASC_NODE": 26.5073, "ARG_OF_PERICENTER": 252.5399, "MEAN_ANOMALY": 76.7961, "EPHEMERIS_TYPE": 0, "CLASSIFICATION_TYPE": "U", "NORAD_CAT_ID": 42818, "ELEMENT_SET_NO": 999, "REV_AT_EPOCH": 3106, "BSTAR": 0, "MEAN_MOTION_DOT": -2.17e-06, "MEAN_MOTION_DDOT": 0}, "tle": {"line1": "1 42818U 17041A   25358.82433638 -.00000217  00000+0  00000+0 0  9995", "line2": "2 42818   0.0182  26.5073 0001994 252.5399  76.7961  1.00269135 31060"}}, "geometry": {"type": "Point", "coordinates": [52.865044850603546, 0.020700924211330077]}}, {"type": "Feature", "properties": {"norad_id": 42950, "name": "INTELSAT 37E (IS-37E)", "group": "intelsat", "lat": 0.027747603137848232, "lon": 69.39998367394153, "alt_km": 35798.9614283595, "timestamp": "2025-12-26T23:26:41.821186+00:00", "meta": {"OBJECT_NAME": "INTELSAT 37E (IS-37E)", "OBJECT_ID": "2017-059A", "EPOCH": "2025-12-26T09:31:23.748096", "MEAN_MOTION": 1.00271484, "ECCENTRICITY": 0.0003113, "INCLINATION": 0.0188, "RA_OF_ASC_NODE": 27.9714, "ARG_OF_PERICENTER": 235.3968, "MEAN_ANOMALY": 316.6339, "EPHEMERIS_TYPE": 0, "CLASSIFICATION_TYPE": "U", "NORAD_CAT_ID": 42950, "ELEMENT_SET_NO": 999, "REV_AT_EPOCH": 3033, "BSTAR": 0, "MEAN_MOTION_DOT": -1.19e-06, "MEAN_MOTION_DDOT": 0}, "tle": {"line1": "1 42950U 17059A   25360.39680264 -.00000119  00000+0  00000+0 0  9996", "line2": "2 42950   0.0188  27.9714 0003113 235.3968 316.6339  1.00271484 30330"}}, "geometry": {"type": "Point", "coordinates": [69.39998367394153, 0.027747603137848232]}}, {"type": "Feature", "properties": {"norad_id": 43632, "name": "AZERSPACE 2 (IS-38)", "group": "intelsat", "lat": 0.03278637124717956, "lon": 132.47412602430836, "alt_km": 35790.89440553874, "timestamp": "2025-12-26T23:26:41.821197+00:00", "meta": {"OBJECT_NAME": "AZERSPACE 2 (IS-38)", "OBJECT_ID": "2018-074A", "EPOCH": "2025-12-25T14:59:23.620416", "MEAN_MOTION": 1.00271088, "ECCENTRICITY": 0.0001362, "INCLINATION": 0.0173, "RA_OF_ASC_NODE": 17.3718, "ARG_OF_PERICENTER": 261.2913, "MEAN_ANOMALY": 85.6698, "EPHEMERIS_TYPE": 0, "CLASSIFICATION_TYPE": "U", "NORAD_CAT_ID": 43632, "ELEMENT_SET_NO": 999, "REV_AT_EPOCH": 2670, "BSTAR": 0, "MEAN_MOTION_DOT": 1.58e-06, "MEAN_MOTION_DDOT": 0}, "tle": {"line1": "1 43632U 18074A   25359.62457894  .00000158  00000+0  00000+0 0  9999", "line2": "2 43632   0.0173  17.3718 0001362 261.2913  85.6698  1.00271088 26708"}}, "geometry": {"type": "Point", "coordinates": [132.47412602430836, 0.03278637124717956]}}, {"type": "Feature", "properties": {"norad_id": 43633, "name": "HORIZONS-3E", "group": "intelsat", "lat": 0.022783222877503662, "lon": -103.61645718642527, "alt_km": 35783.5049810661, "timestamp": "2025-12-26T23:26:41.821208+00:00", "meta": {"OBJECT_NAME": "HORIZONS-3E", "OBJECT_ID": "2018-074B", "EPOCH": "2025-12-26T13:49:38.874432", "MEAN_MOTION": 1.00273063, "ECCENTRICITY": 7.07e-05, "INCLINATION": 0.0447, "RA_OF_ASC_NODE": 189.7522, "ARG_OF_PERICENTER": 109.2304, "MEAN_ANOMALY": 172.7545, "EPHEMERIS_TYPE": 0, "CLASSIFICATION_TYPE": "U", "NORAD_CAT_ID": 43633, "ELEMENT_SET_NO": 999, "REV_AT_EPOCH": 2661, "BSTAR": 0, "MEAN_MOTION_DOT": -8e-08, "MEAN_MOTION_DDOT": 0}, "tle": {"line1": "1 43633U 18074B   25360.57614438 -.00000008  00000+0  00000+0 0  9990", "line2": "2 43633   0.0447 189.7522 0000707 109.2304 172.7545  1.00273063 26611"}}, "geometry": {"type": "Point", "coordinates": [-103.61645718642527, 0.022783222877503662]}}, {"type": "Feature", "properties": {"norad_id": 44333, "name": "AT&T T-16", "group": "intelsat", "lat": -0.027580043731000165, "lon": -13.448827711652337, "alt_km": 35787.598394929126, "timestamp": "2025-12-26T23:26:41.821218+00:00", "meta": {"OBJECT_NAME": "AT&T T-16", "OBJECT_ID": "2019-034A", "EPOCH": "2025-12-26T09:24:01.437984", "MEAN_MOTION": 1.00280007, "ECCENTRICITY": 9.59e-05, "INCLINATION": 0.0209, "RA_OF_ASC_NODE": 69.0211, "ARG_OF_PERICENTER": 116.5883, "MEAN_ANOMALY": 309.683, "EPHEMERIS_TYPE": 0, "CLASSIFICATION_TYPE": "U", "NORAD_CAT_ID": 44333, "ELEMENT_SET_NO": 999, "REV_AT_EPOCH": 2390, "BSTAR": 0, "MEAN_MOTION_DOT": -9.5e-07, "MEAN_MOTION_DDOT": 0}, "tle": {"line1": "1 44333U 19034A   25360.39168331 -.00000095  00000+0  00000+0 0  9997", "line2": "2 44333   0.0209  69.0211 0000959 116.5883 309.6830  1.00280007 23905"}}, "geometry": {"type": "Point", "coordinates": [-13.448827711652337, -0.027580043731000165]}}]}